{
  "type": "FeatureCollection",
  "features": [
    {
      "type": "Feature",
      "properties": {
        "norad_id": 37292,
        "name": "COSMOS 2251 DEB",
        "group": "cosmos-2251-debris",
        "lat": -64.23752821459632,
        "lon": -107.21845021187745,
        "alt_km": 1018.1568347559542,
        "timestamp": "2025-12-20T07:33:51.210559+00:00",
        "meta_object_name": "COSMOS 2251 DEB",
        "meta_object_id": "1993-036BJG",
        "meta_epoch": "2025-12-02T14:04:30.366912",
        "meta_mean_motion": 14.03226454,
        "meta_eccentricity": 0.02102512,
        "meta_inclination": 74.129,
        "meta_ra_of_asc_node": 67.3453,
        "meta_arg_of_pericenter": 73.1105,
        "meta_mean_anomaly": 289.2966,
        "meta_ephemeris_type": 0,
        "meta_classification_type": "U",
        "meta_norad_cat_id": 37292,
        "meta_element_set_no": 999,
        "meta_rev_at_epoch": 59706,
        "meta_bstar": 0.0022453288,
        "meta_mean_motion_dot": 4.236e-05,
        "meta_mean_motion_ddot": 0,
        "tle_line1": "1 37292U 93036BJG 25336.58646258  .00004236  00000+0  22453-2 0  9999",
        "tle_line2": "2 37292  74.1290  67.3453 0210251  73.1105 289.2966 14.03226454597064"
      },
      "geometry": {
        "type": "Point",
        "coordinates": [
          -107.21845021187745,
          -64.23752821459632
        ]
      }
    },
    {
      "type": "Feature",
      "properties": {
        "norad_id": 37295,
        "name": "COSMOS 2251 DEB",
        "group": "cosmos-2251-debris",
        "lat": 49.33737867690131,
        "lon": -73.47392166019478,
        "alt_km": 645.0054525983078,
        "timestamp": "2025-12-20T07:33:51.210570+00:00",
        "meta_object_name": "COSMOS 2251 DEB",
        "meta_object_id": "1993-036BJK",
        "meta_epoch": "2025-12-17T18:42:01.411200",
        "meta_mean_motion": 14.6526833,
        "meta_eccentricity": 0.00439101,
        "meta_inclination": 74.007,
        "meta_ra_of_asc_node": 271.9083,
        "meta_arg_of_pericenter": 89.546,
        "meta_mean_anomaly": 271.074,
        "meta_ephemeris_type": 0,
        "meta_classification_type": "U",
        "meta_norad_cat_id": 37295,
        "meta_element_set_no": 999,
        "meta_rev_at_epoch": 82378,
        "meta_bstar": 0.00042758939,
        "meta_mean_motion_dot": 2.307e-05,
        "meta_mean_motion_ddot": 0,
        "tle_line1": "1 37295U 93036BJK 25351.77918300  .00002307  00000+0  42759-3 0  9999",
        "tle_line2": "2 37295  74.0070 271.9083 0043910  89.5460 271.0740 14.65268330823782"
      },
      "geometry": {
        "type": "Point",
        "coordinates": [
          -73.47392166019478,
          49.33737867690131
        ]
      }
    },
    {
      "type": "Feature",
      "properties": {
        "norad_id": 37305,
        "name": "COSMOS 2251 DEB",
        "group": "cosmos-2251-debris",
        "lat": 55.40657179471949,
        "lon": 71.65876980587615,
        "alt_km": 780.1626113787152,
        "timestamp": "2025-12-20T07:33:51.210580+00:00",
        "meta_object_name": "COSMOS 2251 DEB",
        "meta_object_id": "1993-036BJV",
        "meta_epoch": "2025-12-13T12:50:04.816608",
        "meta_mean_motion": 14.36140847,
        "meta_eccentricity": 0.00500253,
        "meta_inclination": 73.8697,
        "meta_ra_of_asc_node": 289.0409,
        "meta_arg_of_pericenter": 249.3262,
        "meta_mean_anomaly": 110.2523,
        "meta_ephemeris_type": 0,
        "meta_classification_type": "U",
        "meta_norad_cat_id": 37305,
        "meta_element_set_no": 999,
        "meta_rev_at_epoch": 66878,
        "meta_bstar": 0.00092453159,
        "meta_mean_motion_dot": 2.706e-05,
        "meta_mean_motion_ddot": 0,
        "tle_line1": "1 37305U 93036BJV 25347.53477797  .00002706  00000+0  92453-3 0  9999",
        "tle_line2": "2 37305  73.8697 289.0409 0050025 249.3262 110.2523 14.36140847668789"
      },
      "geometry": {
        "type": "Point",
        "coordinates": [
          71.65876980587615,
          55.40657179471949
        ]
      }
    },
    {
      "type": "Feature",
      "properties": {
        "norad_id": 37312,
        "name": "COSMOS 2251 DEB",
        "group": "cosmos-2251-debris",
        "lat": 68.79286202129906,
        "lon": -122.3979980243346,
        "alt_km": 741.7808320772256,
        "timestamp": "2025-12-20T07:33:51.210590+00:00",
        "meta_object_name": "COSMOS 2251 DEB",
        "meta_object_id": "1993-036BKC",
        "meta_epoch": "2025-12-19T21:15:10.386432",
        "meta_mean_motion": 14.46146354,
        "meta_eccentricity": 0.00184857,
        "meta_inclination": 74.0303,
        "meta_ra_of_asc_node": 190.8418,
        "meta_arg_of_pericenter": 293.3779,
        "meta_mean_anomaly": 66.5435,
        "meta_ephemeris_type": 0,
        "meta_classification_type": "U",
        "meta_norad_cat_id": 37312,
        "meta_element_set_no": 999,
        "meta_rev_at_epoch": 86267,
        "meta_bstar": 0.00029508058,
        "meta_mean_motion_dot": 1.03e-05,
        "meta_mean_motion_ddot": 0,
        "tle_line1": "1 37312U 93036BKC 25353.88553688  .00001030  00000+0  29508-3 0  9996",
        "tle_line2": "2 37312  74.0303 190.8418 0018485 293.3779  66.5435 14.46146354862678"
      },
      "geometry": {
        "type": "Point",
        "coordinates": [
          -122.3979980243346,
          68.79286202129906
        ]
      }
    },
    {
      "type": "Feature",
      "properties": {
        "norad_id": 37316,
        "name": "COSMOS 2251 DEB",
        "group": "cosmos-2251-debris",
        "lat": 22.476064421968985,
        "lon": 178.9765387910151,
        "alt_km": 580.7626325646561,
        "timestamp": "2025-12-20T07:33:51.210601+00:00",
        "meta_object_name": "COSMOS 2251 DEB",
        "meta_object_id": "1993-036BKG",
        "meta_epoch": "2025-12-19T18:01:09.644448",
        "meta_mean_motion": 14.94763201,
        "meta_eccentricity": 0.0029419,
        "meta_inclination": 74.0191,
        "meta_ra_of_asc_node": 6.9242,
        "meta_arg_of_pericenter": 72.2213,
        "meta_mean_anomaly": 288.2178,
        "meta_ephemeris_type": 0,
        "meta_classification_type": "U",
        "meta_norad_cat_id": 37316,
        "meta_element_set_no": 999,
        "meta_rev_at_epoch": 86248,
        "meta_bstar": 0.0012605074,
        "meta_mean_motion_dot": 0.00013809,
        "meta_mean_motion_ddot": 0,
        "tle_line1": "1 37316U 93036BKG 25353.75080607  .00013809  00000+0  12605-2 0  9998",
        "tle_line2": "2 37316  74.0191   6.9242 0029419  72.2213 288.2178 14.94763201862480"
      },
      "geometry": {
        "type": "Point",
        "coordinates": [
          178.9765387910151,
          22.476064421968985
        ]
      }
    },
    {
      "type": "Feature",
      "properties": {
        "norad_id": 37320,
        "name": "COSMOS 2251 DEB",
        "group": "cosmos-2251-debris",
        "lat": -37.34947251804938,
        "lon": 35.88909312541597,
        "alt_km": 627.4498309293404,
        "timestamp": "2025-12-20T07:33:51.210611+00:00",
        "meta_object_name": "COSMOS 2251 DEB",
        "meta_object_id": "1993-036BKL",
        "meta_epoch": "2025-12-19T20:49:51.953088",
        "meta_mean_motion": 14.78856543,
        "meta_eccentricity": 0.00469093,
        "meta_inclination": 74.0446,
        "meta_ra_of_asc_node": 204.1562,
        "meta_arg_of_pericenter": 289.7671,
        "meta_mean_anomaly": 69.8449,
        "meta_ephemeris_type": 0,
        "meta_classification_type": "U",
        "meta_norad_cat_id": 37320,
        "meta_element_set_no": 999,
        "meta_rev_at_epoch": 66252,
        "meta_bstar": 0.00051289365,
        "meta_mean_motion_dot": 3.813e-05,
        "meta_mean_motion_ddot": 0,
        "tle_line1": "1 37320U 93036BKL 25353.86796242  .00003813  00000+0  51289-3 0  9990",
        "tle_line2": "2 37320  74.0446 204.1562 0046909 289.7671  69.8449 14.78856543662522"
      },
      "geometry": {
        "type": "Point",
        "coordinates": [
          35.88909312541597,
          -37.34947251804938
        ]
      }
    },
    {
      "type": "Feature",
      "properties": {
        "norad_id": 37326,
        "name": "COSMOS 2251 DEB",
        "group": "cosmos-2251-debris",
        "lat": -42.25364338695286,
        "lon": -54.89252947090266,
        "alt_km": 719.6501086064281,
        "timestamp": "2025-12-20T07:33:51.210621+00:00",
        "meta_object_name": "COSMOS 2251 DEB",
        "meta_object_id": "1993-036BKS",
        "meta_epoch": "2025-12-18T14:41:59.918784",
        "meta_mean_motion": 14.6160351,
        "meta_eccentricity": 0.00547059,
        "meta_inclination": 74.0257,
        "meta_ra_of_asc_node": 323.4491,
        "meta_arg_of_pericenter": 90.7075,
        "meta_mean_anomaly": 270.0361,
        "meta_ephemeris_type": 0,
        "meta_classification_type": "U",
        "meta_norad_cat_id": 37326,
        "meta_element_set_no": 999,
        "meta_rev_at_epoch": 85569,
        "meta_bstar": 0.00040097011,
        "meta_mean_motion_dot": 2.005e-05,
        "meta_mean_motion_ddot": 0,
        "tle_line1": "1 37326U 93036BKS 25352.61249906  .00002005  00000+0  40097-3 0  9995",
        "tle_line2": "2 37326  74.0257 323.4491 0054705  90.7075 270.0361 14.61603510855692"
      },
      "geometry": {
        "type": "Point",
        "coordinates": [
          -54.89252947090266,
          -42.25364338695286
        ]
      }
    }
  ]
}